OBJECT_NAME,OBJECT_ID,EPOCH,MEAN_MOTION,ECCENTRICITY,INCLINATION,RA_OF_ASC_NODE,ARG_OF_PERICENTER,MEAN_ANOMALY,EPHEMERIS_TYPE,CLASSIFICATION_TYPE,NORAD_CAT_ID,ELEMENT_SET_NO,REV_AT_EPOCH,BSTAR,MEAN_MOTION_DOT,MEAN_MOTION_DDOT
STARLINK-31689,2024-076D,2025-10-27T17:03:00.777888,15.27616084,.00007256,43.0021,36.6778,293.3425,66.7350,0,U,59567,999,8620,.41561323E-3,.11205E-3,0
STARLINK-31471,2024-076E,2025-10-27T18:06:50.586624,15.27600617,.00012257,43.0008,39.6034,268.0181,92.0530,0,U,59568,999,8608,.1523752E-3,.3936E-4,0
STARLINK-31470,2024-076F,2025-10-27T18:27:53.398656,15.27598535,.00010026,43.0038,36.2603,269.5375,90.5362,0,U,59569,999,8612,.892945E-4,.2197E-4,0
STARLINK-31587,2024-076G,2025-10-27T15:31:51.406464,15.27577148,.00011666,43.0021,40.5207,289.9170,70.1556,0,U,59570,999,8617,.30329698E-4,.573E-5,0
STARLINK-31606,2024-076H,2025-10-27T20:00:01.000224,15.27571569,.00011568,43.0039,38.8915,285.9500,259.9145,0,U,59571,999,590,.12039979E-2,.33009E-3,0
STARLINK-31666,2024-076J,2025-10-27T23:01:48.705600,15.27582375,.00022939,43.0077,31.6170,270.7216,89.3373,0,U,59572,999,8628,.80186639E-4,.1945E-4,0
STARLINK-31683,2024-076K,2025-10-27T18:08:41.547552,15.27603574,.00016301,43.0030,39.6155,273.0758,86.9907,0,U,59573,999,8617,.6941626E-4,.165E-4,0
STARLINK-31751,2024-076L,2025-10-27T17:22:39.912384,15.27598297,.00011379,43.0046,40.2481,269.6780,90.3941,0,U,59574,999,8616,.6234933E-3,.16944E-3,0
STARLINK-31510,2024-076M,2025-10-27T16:57:26.552448,15.27598870,.00010674,43.0047,36.6534,294.9074,65.1666,0,U,59575,999,8620,.53060468E-4,.1199E-4,0
STARLINK-31663,2024-076N,2025-10-27T17:17:06.559584,15.27594717,.00011744,43.0028,40.2061,275.3561,84.7156,0,U,59576,999,8616,.3973486E-3,.10693E-3,0
STARLINK-31692,2024-076P,2025-10-27T18:32:45.423744,15.27577816,.00013041,43.0002,39.7099,277.5418,82.5286,0,U,59577,999,8617,.85268119E-4,.2085E-4,0
STARLINK-31685,2024-076Q,2025-10-27T17:42:47.494944,15.27584835,.00035224,43.0097,39.4722,274.0112,86.0337,0,U,59578,999,8617,.42777728E-3,.1153E-3,0
STARLINK-31686,2024-076R,2025-10-27T08:23:25.680192,15.27573637,.00011772,43.0032,41.7154,226.4693,133.6061,0,U,59579,999,8611,-.4521229E-5,-.386E-5,0
STARLINK-31668,2024-076S,2025-10-27T17:31:41.822688,15.27591418,.00013831,43.0044,39.4218,267.2127,92.8566,0,U,59580,999,8617,.25280525E-3,.6703E-4,0
STARLINK-31690,2024-076T,2025-10-27T16:29:00.593952,15.27575121,.00006664,43.0000,39.9536,274.5572,85.5204,0,U,59581,999,8617,.61449443E-4,.1429E-4,0
STARLINK-31701,2024-076U,2025-10-27T23:07:54.094656,15.27699961,.00021486,43.0032,38.5928,276.5817,83.4790,0,U,59582,999,8611,.16366434E-2,.45218E-3,0
STARLINK-31697,2024-076V,2025-10-27T18:14:15.873216,15.27579837,.00009356,42.9994,39.6408,290.8321,69.2430,0,U,59583,999,8608,.28431729E-3,.757E-4,0
STARLINK-31662,2024-076W,2025-10-27T18:34:36.147936,15.27609005,.00012732,43.0016,39.7463,268.0702,92.0004,0,U,59584,999,8617,.49098875E-3,.13285E-3,0
STARLINK-31702,2024-076X,2025-10-27T17:24:30.310848,15.27580792,.00011141,43.0015,40.2447,237.5159,122.5585,0,U,59585,999,8616,.41907748E-4,.891E-5,0
STARLINK-31704,2024-076Y,2025-10-27T15:32:17.649600,15.27604229,.00012603,43.0003,356.8481,268.1936,91.8772,0,U,59586,999,8664,.13616412E-2,.37425E-3,0
STARLINK-31770,2024-080A,2025-10-27T17:19:13.797408,15.27579461,.0001564,43.0017,69.1208,280.5549,79.5126,0,U,59601,999,8540,.41453677E-3,.11162E-3,0
STARLINK-31778,2024-080B,2025-10-27T17:21:45.671328,15.27599549,.00011923,42.9997,65.6822,275.1236,84.9479,0,U,59602,999,8423,-.35669989E-3,-.1007E-3,0
STARLINK-31776,2024-080C,2025-10-26T19:18:30.256704,15.27596799,.0001489,43.0016,77.7415,270.5329,89.5352,0,U,59603,999,8401,.48303E-3,.1306E-3,0
STARLINK-31765,2024-080D,2025-10-27T10:20:45.926304,15.27538640,.00012603,43.0001,66.9219,296.8137,63.2586,0,U,59604,999,8419,-.74405998E-3,-.20654E-3,0
STARLINK-31767,2024-080E,2025-10-27T17:08:09.439296,15.27552513,.00012446,42.9994,69.0679,279.5592,80.5119,0,U,59605,999,8419,.2245578E-5,-.2E-5,0
STARLINK-31782,2024-080F,2025-10-27T17:31:29.248896,15.27582141,.00013086,42.9999,72.6438,265.8266,94.2436,0,U,59606,999,8415,-.2413585E-4,-.926E-5,0
STARLINK-31755,2024-080G,2025-10-27T19:11:12.363360,15.27561425,.00009845,43.0005,72.3060,279.8235,80.2505,0,U,59607,999,8416,.10668619E-3,.2673E-4,0
STARLINK-31585,2024-080H,2025-10-27T15:54:48.816864,15.27615922,.00003964,42.9986,65.2236,359.4123,0.6728,0,U,59608,999,8424,.69621362E-3,.18966E-3,0
STARLINK-31667,2024-080J,2025-10-27T17:34:31.947744,15.27574278,.00006253,43.0022,64.8768,305.0882,54.9911,0,U,59609,999,8424,.39765743E-4,.832E-5,0
STARLINK-31729,2024-080K,2025-10-27T15:40:14.045376,15.27567040,.0001078,42.9990,66.0076,277.2700,82.8029,0,U,59610,999,8422,-.77774818E-4,-.2401E-4,0
