STARLINK-31689          
1 59567U 24076D   25300.71042567  .00011205  00000+0  41561-3 0  9991
2 59567  43.0021  36.6778 0000725 293.3425  66.7350 15.27616084 86206
STARLINK-31471          
1 59568U 24076E   25300.75475216  .00003936  00000+0  15238-3 0  9991
2 59568  43.0008  39.6034 0001225 268.0181  92.0530 15.27600617 86087
STARLINK-31470          
1 59569U 24076F   25300.76936804  .00002197  00000+0  89295-4 0  9991
2 59569  43.0038  36.2603 0001002 269.5375  90.5362 15.27598535 86126
STARLINK-31587          
1 59570U 24076G   25300.64712276  .00000573  00000+0  30330-4 0  9997
2 59570  43.0021  40.5207 0001166 289.9170  70.1556 15.27577148 86179
STARLINK-31606          
1 59571U 24076H   25300.83334491  .00033009  00000+0  12040-2 0  9994
2 59571  43.0039  38.8915 0001156 285.9500 259.9145 15.27571569  5901
STARLINK-31666          
1 59572U 24076J   25300.95959150  .00001945  00000+0  80187-4 0  9996
2 59572  43.0077  31.6170 0002293 270.7216  89.3373 15.27582375 86282
STARLINK-31683          
1 59573U 24076K   25300.75603643  .00001650  00000+0  69416-4 0  9993
2 59573  43.0030  39.6155 0001630 273.0758  86.9907 15.27603574 86173
STARLINK-31751          
1 59574U 24076L   25300.72407306  .00016944  00000+0  62349-3 0  9998
2 59574  43.0046  40.2481 0001137 269.6780  90.3941 15.27598297 86160
STARLINK-31510          
1 59575U 24076M   25300.70655732  .00001199  00000+0  53060-4 0  9992
2 59575  43.0047  36.6534 0001067 294.9074  65.1666 15.27598870 86205
STARLINK-31663          
1 59576U 24076N   25300.72021481  .00010693  00000+0  39735-3 0  9994
2 59576  43.0028  40.2061 0001174 275.3561  84.7156 15.27594717 86166
STARLINK-31692          
1 59577U 24076P   25300.77274796  .00002085  00000+0  85268-4 0  9998
2 59577  43.0002  39.7099 0001304 277.5418  82.5286 15.27577816 86175
STARLINK-31685          
1 59578U 24076Q   25300.73804971  .00011530  00000+0  42778-3 0  9992
2 59578  43.0097  39.4722 0003522 274.0112  86.0337 15.27584835 86172
STARLINK-31686          
1 59579U 24076R   25300.34960278 -.00000386  00000+0 -45212-5 0  9990
2 59579  43.0032  41.7154 0001177 226.4693 133.6061 15.27573637 86111
STARLINK-31668          
1 59580U 24076S   25300.73034517  .00006703  00000+0  25281-3 0  9992
2 59580  43.0044  39.4218 0001383 267.2127  92.8566 15.27591418 86174
STARLINK-31690          
1 59581U 24076T   25300.68681243  .00001429  00000+0  61449-4 0  9998
2 59581  43.0000  39.9536 0000666 274.5572  85.5204 15.27575121 86174
STARLINK-31701          
1 59582U 24076U   25300.96382054  .00045218  00000+0  16366-2 0  9998
2 59582  43.0032  38.5928 0002148 276.5817  83.4790 15.27699961 86111
STARLINK-31697          
1 59583U 24076V   25300.75990594  .00007570  00000+0  28432-3 0  9997
2 59583  42.9994  39.6408 0000935 290.8321  69.2430 15.27579837 86081
STARLINK-31662          
1 59584U 24076W   25300.77402949  .00013285  00000+0  49099-3 0  9994
2 59584  43.0016  39.7463 0001273 268.0702  92.0004 15.27609005 86179
STARLINK-31702          
1 59585U 24076X   25300.72535082  .00000891  00000+0  41908-4 0  9996
2 59585  43.0015  40.2447 0001114 237.5159 122.5585 15.27580792 86162
STARLINK-31704          
1 59586U 24076Y   25300.64742650  .00037425  00000+0  13616-2 0  9995
2 59586  43.0003 356.8481 0001260 268.1936  91.8772 15.27604229 86640
STARLINK-31770          
1 59601U 24080A   25300.72168747  .00011162  00000+0  41454-3 0  9998
2 59601  43.0017  69.1208 0001564 280.5549  79.5126 15.27579461 85407
STARLINK-31778          
1 59602U 24080B   25300.72344527 -.00010070  00000+0 -35670-3 0  9993
2 59602  42.9997  65.6822 0001192 275.1236  84.9479 15.27599549 84236
STARLINK-31776          
1 59603U 24080C   25299.80451686  .00013060  00000+0  48303-3 0  9992
2 59603  43.0016  77.7415 0001489 270.5329  89.5352 15.27596799 84015
STARLINK-31765          
1 59604U 24080D   25300.43108711 -.00020654  00000+0 -74406-3 0  9995
2 59604  43.0001  66.9219 0001260 296.8137  63.2586 15.27538640 84195
STARLINK-31767          
1 59605U 24080E   25300.71399814 -.00000200  00000+0  22456-5 0  9997
2 59605  42.9994  69.0679 0001244 279.5592  80.5119 15.27552513 84193
STARLINK-31782          
1 59606U 24080F   25300.73019964 -.00000926  00000+0 -24136-4 0  9997
2 59606  42.9999  72.6438 0001308 265.8266  94.2436 15.27582141 84159
STARLINK-31755          
1 59607U 24080G   25300.79944865  .00002673  00000+0  10669-3 0  9995
2 59607  43.0005  72.3060 0000984 279.8235  80.2505 15.27561425 84163
STARLINK-31585          
1 59608U 24080H   25300.66306501  .00018966  00000+0  69621-3 0  9995
2 59608  42.9986  65.2236 0000396 359.4123   0.6728 15.27615922 84248
STARLINK-31667          
1 59609U 24080J   25300.73231421  .00000832  00000+0  39766-4 0  9993
2 59609  43.0022  64.8768 0000625 305.0882  54.9911 15.27574278 84245
STARLINK-31729          
1 59610U 24080K   25300.65294034 -.00002401  00000+0 -77775-4 0  9993
2 59610  42.9990  66.0076 0001078 277.2700  82.8029 15.27567040 84224
